[{"OBJECT_NAME":"STARLINK-3057","OBJECT_ID":"2021-082K","EPOCH":"2026-03-09T21:07:46.077024","MEAN_MOTION":14.98332376,"ECCENTRICITY":0.00026723,"INCLINATION":69.9986,"RA_OF_ASC_NODE":253.9616,"ARG_OF_PERICENTER":269.0716,"MEAN_ANOMALY":91.0136,"EPHEMERIS_TYPE":0,"CLASSIFICATION_TYPE":"U","NORAD_CAT_ID":49139,"ELEMENT_SET_NO":999,"REV_AT_EPOCH":24699,"BSTAR":1.7534562e-5,"MEAN_MOTION_DOT":1.16e-6,"MEAN_MOTION_DDOT":0},{"OBJECT_NAME":"SHIYAN-24C 02","OBJECT_ID":"2023-206B","EPOCH":"2026-03-09T21:24:07.715808","MEAN_MOTION":14.97980163,"ECCENTRICITY":0.0003465,"INCLINATION":97.3985,"RA_OF_ASC_NODE":41.8071,"ARG_OF_PERICENTER":80.6641,"MEAN_ANOMALY":279.4974,"EPHEMERIS_TYPE":0,"CLASSIFICATION_TYPE":"U","NORAD_CAT_ID":58651,"ELEMENT_SET_NO":999,"REV_AT_EPOCH":12044,"BSTAR":0.00023935,"MEAN_MOTION_DOT":2.77e-5,"MEAN_MOTION_DDOT":0}]
